NORAD_CAT_ID,OBJECT_NAME,OBJECT_TYPE,EPOCH,MEAN_MOTION,ECCENTRICITY,INCLINATION,RA_OF_ASC_NODE,ARG_OF_PERICENTER,MEAN_ANOMALY,BSTAR,MEAN_MOTION_DOT,MEAN_MOTION_DDOT,TLE_LINE0,TLE_LINE1,TLE_LINE2,SEMIMAJOR_AXIS,PERIOD,APOGEE,PERIGEE,DECAYED
50191.0,STARLINK-3273,PAYLOAD,2024-03-02 01:31:18,15.08848237,0.0001521,53.218,330.4532,87.6571,272.4595,0.00018298,2.626e-05,0.0,0 STARLINK-3273,1 50191U 21125AM  24062.06340990  .00002626  00000-0  18298-3 0  9999,2 50191  53.2180 330.4532 0001521  87.6571 272.4595 15.08848237122016,6917.855,95.437,540.772,538.668,0.0
50191.0,STARLINK-3273,PAYLOAD,2024-03-02 22:11:19,15.08841664,0.0001598,53.2182,326.5877,83.6012,276.5162,8.896e-05,1.128e-05,0.0,0 STARLINK-3273,1 50191U 21125AM  24062.92453380  .00001128  00000-0  88960-4 0  9992,2 50191  53.2182 326.5877 0001598  83.6012 276.5162 15.08841664125224,6917.875,95.437,540.846,538.635,0.0
50191.0,STARLINK-3273,PAYLOAD,2024-03-03 02:57:28,15.08846368,0.0001513,53.2185,325.6926,86.7359,273.3806,8.0946e-05,1.001e-05,0.0,0 STARLINK-3273,1 50191U 21125AM  24063.12325076  .00001001  00000-0  80946-4 0  9991,2 50191  53.2185 325.6926 0001513  86.7359 273.3806 15.08846368122174,6917.861,95.437,540.773,538.679,0.0
50191.0,STARLINK-3273,PAYLOAD,2024-03-03 10:54:24,15.08843932,0.0001451,53.217,324.2064,95.0597,265.0561,0.00010539,1.39e-05,0.0,0 STARLINK-3273,1 50191U 21125AM  24063.45445195  .00001390  00000-0  10539-3 0  9993,2 50191  53.2170 324.2064 0001451  95.0597 265.0561 15.08843932125302,6917.868,95.437,540.737,538.73,0.0
50191.0,STARLINK-3273,PAYLOAD,2024-03-03 20:26:43,15.08845159,0.0001522,53.2174,322.422,95.1235,264.9931,0.00013463,1.856e-05,0.0,0 STARLINK-3273,1 50191U 21125AM  24063.85189135  .00001856  00000-0  13463-3 0  9992,2 50191  53.2174 322.4220 0001522  95.1235 264.9931 15.08845159125367,6917.865,95.437,540.783,538.677,0.0
50191.0,STARLINK-3273,PAYLOAD,2024-03-03 23:37:29,15.08858038,0.0001624,53.2181,321.8266,95.7285,264.3892,0.00024843,3.67e-05,0.0,0 STARLINK-3273,1 50191U 21125AM  24063.98436579  .00003670  00000-0  24843-3 0  9993,2 50191  53.2181 321.8266 0001624  95.7285 264.3892 15.08858038125384,6917.825,95.436,540.814,538.567,0.0
50191.0,STARLINK-3273,PAYLOAD,2024-03-04 20:17:29,15.08853045,0.0001687,53.2175,317.9604,110.6335,249.4838,0.00031445,4.722e-05,0.0,0 STARLINK-3273,1 50191U 21125AM  24064.84548267  .00004722  00000-0  31445-3 0  9992,2 50191  53.2175 317.9604 0001687 110.6335 249.4838 15.08853045122431,6917.841,95.437,540.873,538.538,0.0
50191.0,STARLINK-3273,PAYLOAD,2024-03-04 23:28:15,15.08856181,0.0001279,53.2165,317.3657,96.4499,263.6639,0.00028329,4.225e-05,0.0,0 STARLINK-3273,1 50191U 21125AM  24064.97796033  .00004225  00000-0  28329-3 0  9997,2 50191  53.2165 317.3657 0001279  96.4499 263.6639 15.08856181125536,6917.831,95.437,540.581,538.811,0.0
50191.0,STARLINK-3273,PAYLOAD,2024-03-05 21:43:39,15.0884479,0.0001247,53.2175,313.203,110.2389,249.8737,4.5718e-06,-2.15e-06,0.0,0 STARLINK-3273,1 50191U 21125AM  24065.90532085 -.00000215  00000-0  45718-5 0  9995,2 50191  53.2175 313.2030 0001247 110.2389 249.8737 15.08844790122596,6917.866,95.437,540.593,538.868,0.0
50191.0,STARLINK-3273,PAYLOAD,2024-03-05 23:19:03,15.08841365,0.0001226,53.2171,312.908,97.9789,262.1342,-7.8487e-05,-1.537e-05,0.0,0 STARLINK-3273,1 50191U 21125AM  24065.97156250 -.00001537  00000-0 -78487-4 0  9995,2 50191  53.2171 312.9080 0001226  97.9789 262.1342 15.08841365125683,6917.876,95.437,540.589,538.893,0.0
50191.0,STARLINK-3273,PAYLOAD,2024-03-06 19:59:04,15.08829788,0.0001119,53.217,309.0437,101.8172,258.2946,-0.00018532,-3.235e-05,0.0,0 STARLINK-3273,1 50191U 21125AM  24066.83269205 -.00003235  00000-0 -18532-3 0  9997,2 50191  53.2170 309.0437 0001119 101.8172 258.2946 15.08829788122731,6917.912,95.438,540.551,539.002,0.0
50191.0,STARLINK-3273,PAYLOAD,2024-03-07 08:42:09,15.08839149,0.0001151,53.2181,306.6659,98.2161,261.8962,2.7008e-06,-2.45e-06,0.0,0 STARLINK-3273,1 50191U 21125AM  24067.36261154 -.00000245  00000-0  27008-5 0  9998,2 50191  53.2181 306.6659 0001151  98.2161 261.8962 15.08839149125895,6917.883,95.438,540.544,538.952,0.0
50191.0,STARLINK-3273,PAYLOAD,2024-03-08 02:11:24,15.08840102,0.0001535,53.219,303.3938,123.6742,236.4397,6.6473e-05,7.7e-06,0.0,0 STARLINK-3273,1 50191U 21125AM  24068.09125404  .00000770  00000-0  66473-4 0  9996,2 50191  53.2190 303.3938 0001535 123.6742 236.4397 15.08840102122925,6917.88,95.438,540.807,538.683,0.0
50191.0,STARLINK-3273,PAYLOAD,2024-03-08 08:32:56,15.08842847,0.000128,53.219,302.2044,99.5349,260.5788,0.00023555,3.463e-05,0.0,0 STARLINK-3273,1 50191U 21125AM  24068.35621091  .00003463  00000-0  23555-3 0  9993,2 50191  53.2190 302.2044 0001280  99.5349 260.5788 15.08842847126049,6917.872,95.437,540.622,538.851,0.0
50191.0,STARLINK-3273,PAYLOAD,2024-03-09 00:26:48,15.08836185,3.7e-05,53.2188,299.2323,141.3775,218.7243,9.5208e-05,1.228e-05,0.0,0 STARLINK-3273,1 50191U 21125AM  24069.01861753  .00001228  00000-0  95208-4 0  9990,2 50191  53.2188 299.2323 0000370 141.3775 218.7243 15.08836185123067,6917.892,95.438,540.013,539.501,0.0
50191.0,STARLINK-3273,PAYLOAD,2024-03-09 08:23:43,15.08836659,0.0001151,53.2189,297.7452,246.7243,113.3628,7.5286e-05,9.1e-06,0.0,0 STARLINK-3273,1 50191U 21125AM  24069.34981376  .00000910  00000-0  75286-4 0  9991,2 50191  53.2189 297.7452 0001151 246.7243 113.3628 15.08836659126192,6917.891,95.438,540.552,538.959,0.0
50191.0,STARLINK-3273,PAYLOAD,2024-03-09 21:06:51,15.08812003,4.58e-05,53.2184,295.3618,153.7508,206.3507,-0.00011876,-2.175e-05,0.0,0 STARLINK-3273,1 50191U 21125AM  24069.87976606 -.00002175  00000-0 -11876-3 0  9990,2 50191  53.2184 295.3618 0000458 153.7508 206.3507 15.08812003123198,6917.966,95.439,540.148,539.514,0.0
50191.0,STARLINK-3273,PAYLOAD,2024-03-10 00:17:37,15.08825614,9.63e-05,53.2172,294.7701,108.8381,251.2715,-6.4404e-05,-1.312e-05,0.0,0 STARLINK-3273,1 50191U 21125AM  24070.01223782 -.00001312  00000-0 -64404-4 0  9996,2 50191  53.2172 294.7701 0000963 108.8381 251.2715 15.08825614123217,6917.924,95.438,540.456,539.123,0.0
50191.0,STARLINK-3273,PAYLOAD,2024-03-10 08:14:32,15.08832449,8.39e-05,53.2172,293.2812,115.2811,244.8268,1.8437e-05,6e-08,0.0,0 STARLINK-3273,1 50191U 21125AM  24070.34343325  .00000006  00000-0  18437-4 0  9990,2 50191  53.2172 293.2812 0000839 115.2811 244.8268 15.08832449123266,6917.903,95.438,540.349,539.188,0.0
50191.0,STARLINK-3273,PAYLOAD,2024-03-10 20:57:37,15.08836114,4.8e-05,53.219,290.902,122.2814,237.8225,0.0001648,2.336e-05,0.0,0 STARLINK-3273,1 50191U 21125AM  24070.87334690  .00002336  00000-0  16480-3 0  9996,2 50191  53.2190 290.9020 0000480 122.2814 237.8225 15.08836114123341,6917.892,95.438,540.089,539.425,0.0
50191.0,STARLINK-3273,PAYLOAD,2024-03-11 08:05:18,15.0884566,0.0001141,53.2162,288.8207,105.2789,254.833,0.00023369,3.434e-05,0.0,0 STARLINK-3273,1 50191U 21125AM  24071.33702247  .00003434  00000-0  23369-3 0  9999,2 50191  53.2162 288.8207 0001141 105.2789 254.8330 15.08845660123410,6917.863,95.437,540.517,538.939,0.0
50191.0,STARLINK-3273,PAYLOAD,2024-03-11 20:48:23,15.08839634,5.07e-05,53.2163,286.4433,110.0245,250.0802,0.00031454,4.722e-05,0.0,0 STARLINK-3273,1 50191U 21125AM  24071.86694389  .00004722  00000-0  31454-3 0  9999,2 50191  53.2163 286.4433 0000507 110.0245 250.0802 15.08839634123496,6917.882,95.438,540.097,539.396,0.0
50191.0,STARLINK-3273,PAYLOAD,2024-03-12 20:39:10,15.08848211,8.42e-05,53.2157,281.982,106.6273,253.4811,0.00010116,1.323e-05,0.0,0 STARLINK-3273,1 50191U 21125AM  24072.86054148  .00001323  00000-0  10116-3 0  9999,2 50191  53.2157 281.9820 0000842 106.6273 253.4811 15.08848211126720,6917.855,95.437,540.303,539.138,0.0
50191.0,STARLINK-3273,PAYLOAD,2024-03-13 22:05:20,15.08842811,5.31e-05,53.2171,277.2227,97.0828,263.0225,2.5285e-05,1.15e-06,0.0,0 STARLINK-3273,1 50191U 21125AM  24073.92038107  .00000115  00000-0  25285-4 0  9996,2 50191  53.2171 277.2227 0000531  97.0828 263.0225 15.08842811126882,6917.872,95.437,540.104,539.369,0.0
50191.0,STARLINK-3273,PAYLOAD,2024-03-14 06:02:14,15.08898074,2.4e-05,53.2159,275.7384,151.0026,209.098,-0.00070827,-0.0001156,0.0,0 STARLINK-3273,1 50191U 21125AM  24074.25155338 -.00011560  00000-0 -70827-3 0  9998,2 50191  53.2159 275.7384 0000240 151.0026 209.0980 15.08898074126939,6917.703,95.434,539.734,539.402,0.0
50191.0,STARLINK-3273,PAYLOAD,2024-03-14 18:45:22,15.08831917,8.97e-05,53.2179,273.3606,96.9397,263.1697,4.7602e-05,4.7e-06,0.0,0 STARLINK-3273,1 50191U 21125AM  24074.78150824  .00000470  00000-0  47602-4 0  9993,2 50191  53.2179 273.3606 0000897  96.9397 263.1697 15.08831917123934,6917.905,95.438,540.391,539.15,0.0
50191.0,STARLINK-3273,PAYLOAD,2024-03-15 21:46:54,15.08866957,0.0001131,53.2155,268.3038,68.7316,291.3797,-0.00030615,-5.161e-05,0.0,0 STARLINK-3273,1 50191U 21125AM  24075.90758059 -.00005161  00000-0 -30615-3 0  9991,2 50191  53.2155 268.3038 0001131  68.7316 291.3797 15.08866957127188,6917.798,95.436,540.445,538.881,0.0
50191.0,STARLINK-3273,PAYLOAD,2024-03-15 23:22:17,15.08865486,0.0001007,53.2157,268.0063,74.5733,285.537,-0.00027475,-4.661e-05,0.0,0 STARLINK-3273,1 50191U 21125AM  24075.97381904 -.00004661  00000-0 -27475-3 0  9993,2 50191  53.2157 268.0063 0001007  74.5733 285.5370 15.08865486124113,6917.802,95.436,540.364,538.971,0.0
50191.0,STARLINK-3273,PAYLOAD,2024-03-16 20:02:19,15.08838133,8.53e-05,53.2165,264.1394,86.6801,273.4289,0.00011118,1.482e-05,0.0,0 STARLINK-3273,1 50191U 21125AM  24076.83494887  .00001482  00000-0  11118-3 0  9997,2 50191  53.2165 264.1394 0000853  86.6801 273.4289 15.08838133124242,6917.886,95.438,540.341,539.161,0.0
50191.0,STARLINK-3273,PAYLOAD,2024-03-16 21:37:42,15.08838272,8.6e-05,53.2165,263.842,85.305,274.804,0.000109,1.447e-05,0.0,0 STARLINK-3273,1 50191U 21125AM  24076.90118896  .00001447  00000-0  10900-3 0  9997,2 50191  53.2165 263.8420 0000860  85.3050 274.8040 15.08838272127335,6917.886,95.438,540.346,539.156,0.0
